     2.11           N: GPS NAV DATA                         RINEX VERSION / TYPE
teqc  2019Feb25                         20221121 12:28:17UTCPGM / RUN BY / DATE
OSX ker:10.11.6|Core i5|gcc 4.3 -m64|OSX ker:10.10+|=+      COMMENT
    1.1176D-08  0.0000D+00 -5.9605D-08  0.0000D+00          ION ALPHA
    9.0112D+04  0.0000D+00 -1.9661D+05  0.0000D+00          ION BETA
   -3.725290298462D-09-4.440892098501D-15   319488     1553 DELTA-UTC: A0,A1,T,W
                                                            END OF HEADER
 2 09 10 13  0  0  0.0 1.804549247026D-04 3.637978807092D-12 0.000000000000D+00
    2.900000000000D+01 3.900000000000D+01 5.401296414247D-09-1.164483006146D+00
    2.004206180573D-06 9.113333071582D-03 6.807968020439D-06 5.153716585159D+03
    1.728000000000D+05 5.029141902924D-08-2.916787688372D+00-1.005828380585D-07
    9.410786240678D-01 2.381562500000D+02 2.903532443667D+00-8.547141737047D-09
    3.675153084878D-10 1.000000000000D+00 1.553000000000D+03 0.000000000000D+00
    2.000000000000D+00 0.000000000000D+00-1.722946763039D-08 2.900000000000D+01
    1.698060000000D+05 4.000000000000D+00
 4 09 10 13  0  0  0.0-3.082100301981D-04-1.773514668457D-11 0.000000000000D+00
    1.180000000000D+02 3.984375000000D+01 5.442012395946D-09 1.671746513215D+00
    2.197921276093D-06 8.916979539208D-03 7.132068276405D-06 5.153551445007D+03
    1.728000000000D+05-1.769512891769D-07-2.898600692274D+00 2.123415470123D-07
    9.402571194946D-01 2.337500000000D+02 5.359812662968D-01-8.567499727896D-09
    2.282237921513D-10 1.000000000000D+00 1.553000000000D+03 0.000000000000D+00
    2.000000000000D+00 0.000000000000D+00-6.053596735001D-09 1.180000000000D+02
    1.698060000000D+05 4.000000000000D+00
 5 09 10 13  0  0  0.0-6.689829751849D-05 8.867573342286D-12 0.000000000000D+00
    1.010000000000D+02-5.687500000000D+00 4.750555022542D-09 2.060745857537D-01
   -3.427267074585D-07 1.522237784229D-03 7.143244147301D-06 5.153573011398D+03
    1.728000000000D+05-6.519258022308D-08-1.858679700967D+00 2.607703208923D-08
    9.610620118847D-01 2.397187500000D+02 2.275206356391D-01-8.211413466902D-09
   -4.850202030383D-10 1.000000000000D+00 1.553000000000D+03 0.000000000000D+00
    2.800000000000D+00 0.000000000000D+00-9.313225746155D-09 1.010000000000D+02
    1.717320000000D+05 4.000000000000D+00
13 09 10 13  0  0  0.0 3.055757842958D-04 2.273736754432D-13 0.000000000000D+00
    8.100000000000D+01 5.284375000000D+01 3.645508992939D-09-5.468558912458D-01
    2.726912498474D-06 3.952533821575D-03 1.014769077301D-05 5.153644638062D+03
    1.728000000000D+05-3.539025783539D-08-7.457199688357D-01 9.313225746155D-09
    9.943364917518D-01 2.011250000000D+02 1.662995119290D+00-7.723536001990D-09
   -7.750322832055D-11 1.000000000000D+00 1.553000000000D+03 0.000000000000D+00
    2.000000000000D+00 0.000000000000D+00-1.117587089539D-08 8.100000000000D+01
    1.698060000000D+05 4.000000000000D+00
29 09 10 13  0  0  0.0 6.548129022121D-05 3.296918293927D-12 0.000000000000D+00
    6.200000000000D+01-1.521875000000D+01 4.393754446080D-09 2.526096327149D+00
   -1.011416316032D-06 2.990800538100D-03 1.168064773083D-05 5.153597326279D+03
    1.728000000000D+05-1.862645149231D-08 2.361367737176D+00 7.078051567078D-08
    9.602428187220D-01 1.563125000000D+02-1.268538653121D+00-7.823183009831D-09
    3.146559638268D-10 1.000000000000D+00 1.553000000000D+03 0.000000000000D+00
    2.000000000000D+00 0.000000000000D+00-8.847564458847D-09 6.200000000000D+01
    1.705620000000D+05 4.000000000000D+00
23 09 10 13  0  0  0.0 3.875643014908D-04-4.547473508865D-13 0.000000000000D+00
    6.700000000000D+01 5.393750000000D+01 4.089098898811D-09-1.261102729762D+00
    2.702698111534D-06 6.391883711331D-03 1.056306064129D-05 5.153771224976D+03
    1.728000000000D+05-3.352761268616D-08-8.010211527177D-01-9.872019290924D-08
    9.696393419649D-01 1.802812500000D+02 2.988834839917D+00-7.901400553620D-09
   -4.893060958486D-11 1.000000000000D+00 1.553000000000D+03 0.000000000000D+00
    2.000000000000D+00 0.000000000000D+00-2.002343535423D-08 6.700000000000D+01
    1.698060000000D+05 4.000000000000D+00
30 09 10 13  0  0  0.0 1.843934878707D-04 3.069544618484D-12 0.000000000000D+00
    1.160000000000D+02-8.328125000000D+01 4.809843206419D-09 9.573885382755D-01
   -4.529953002930D-06 1.194242096972D-02 6.223097443581D-06 5.153662282944D+03
    1.728000000000D+05-1.732259988785D-07 1.243002704143D+00-5.215406417847D-08
    9.531722635422D-01 2.567187500000D+02 1.460524770159D+00-8.547856052515D-09
   -1.764359206929D-10 1.000000000000D+00 1.553000000000D+03 0.000000000000D+00
    2.800000000000D+00 0.000000000000D+00-7.916241884232D-09 1.160000000000D+02
    1.698060000000D+05 4.000000000000D+00
10 09 10 13  0  0  0.0-2.572592347860D-05-9.094947017729D-13 0.000000000000D+00
    8.400000000000D+01-5.406250000000D+00 4.916633368943D-09-6.843724318874D-02
   -2.346932888031D-07 8.613931480795D-03 7.174909114838D-06 5.153382148743D+03
    1.728000000000D+05-2.793967723846D-08-1.831639825391D+00 1.005828380585D-07
    9.561301449212D-01 2.366875000000D+02 6.174416754041D-01-8.410707482584D-09
   -4.853773607725D-10 1.000000000000D+00 1.553000000000D+03 0.000000000000D+00
    2.000000000000D+00 0.000000000000D+00-2.793967723846D-09 8.400000000000D+01
    1.708020000000D+05 4.000000000000D+00
25 09 10 13  0  0  0.0 6.290567107499D-04 1.364242052659D-11 0.000000000000D+00
    6.400000000000D+01 4.868750000000D+01 4.325537318849D-09 1.696125688980D+00
    2.374872565269D-06 1.125514681917D-02 4.740431904793D-06 5.153641208649D+03
    1.728000000000D+05 1.937150955200D-07 1.460530845658D-01-6.332993507385D-08
    9.714657995756D-01 2.899687500000D+02-1.214085506757D+00-8.118552456011D-09
    1.978653847446D-10 1.000000000000D+00 1.553000000000D+03 0.000000000000D+00
    2.800000000000D+00 0.000000000000D+00-7.450580596924D-09 6.400000000000D+01
    1.726320000000D+05 4.000000000000D+00
10 09 10 13  2  0  0.0-2.573290839791D-05-9.094947017729D-13 0.000000000000D+00
    8.800000000000D+01-1.265625000000D+01 5.005208487024D-09 9.819522436010D-01
   -3.948807716370D-07 8.612995268777D-03 7.253140211105D-06 5.153380352020D+03
    1.800000000000D+05-5.215406417847D-08-1.831700327294D+00 6.891787052155D-08
    9.561266222145D-01 2.377500000000D+02 6.174153253237D-01-8.408564536178D-09
   -5.028780897481D-10 1.000000000000D+00 1.553000000000D+03 0.000000000000D+00
    2.000000000000D+00 0.000000000000D+00-2.793967723846D-09 8.800000000000D+01
    1.728180000000D+05 4.000000000000D+00
29 09 10 13  2  0  0.0 6.550503894687D-05 3.296918293927D-12 0.000000000000D+00
    6.300000000000D+01-1.696875000000D+01 4.322680056975D-09-2.706798686402D+00
   -9.797513484955D-07 2.990978187881D-03 1.123361289501D-05 5.153596969604D+03
    1.800000000000D+05 2.607703208923D-08 2.361311774708D+00-1.117587089539D-08
    9.602447409964D-01 1.587187500000D+02-1.268602440738D+00-7.839969423338D-09
    2.375098932404D-10 1.000000000000D+00 1.553000000000D+03 0.000000000000D+00
    2.000000000000D+00 0.000000000000D+00-8.847564458847D-09 6.300000000000D+01
    1.728180000000D+05 4.000000000000D+00
 5 09 10 13  2  0  0.0-6.683403626084D-05 8.867573342286D-12 0.000000000000D+00
    1.030000000000D+02-1.403125000000D+01 4.881631910992D-09 1.256818205512D+00
   -5.401670932770D-07 1.521309837699D-03 7.092952728272D-06 5.153570749283D+03
    1.800000000000D+05 2.980232238770D-08-1.858739534317D+00-1.676380634308D-08
    9.610585725643D-01 2.418437500000D+02 2.270226671025D-01-8.276773332260D-09
   -4.153744448700D-10 1.000000000000D+00 1.553000000000D+03 0.000000000000D+00
    2.800000000000D+00 0.000000000000D+00-9.313225746155D-09 1.030000000000D+02
    1.728180000000D+05 4.000000000000D+00
25 09 10 13  2  0  0.0 6.291554309428D-04 1.364242052659D-11 0.000000000000D+00
    6.500000000000D+01 5.262500000000D+01 4.338394997280D-09 2.746289261720D+00
    2.769753336906D-06 1.125532423612D-02 4.645437002182D-06 5.153641595840D+03
    1.800000000000D+05 8.940696716309D-08 1.459953622071D-01 2.048909664154D-08
    9.714671322940D-01 2.944375000000D+02-1.214050564959D+00-8.049621013311D-09
    1.389343586023D-10 1.000000000000D+00 1.553000000000D+03 0.000000000000D+00
    2.800000000000D+00 0.000000000000D+00-7.450580596924D-09 6.500000000000D+01
    1.728180000000D+05 4.000000000000D+00
 4 09 10 13  2  0  0.0-3.083376213908D-04-1.773514668457D-11 0.000000000000D+00
    1.190000000000D+02 4.153125000000D+01 5.310578349762D-09 2.722049156799D+00
    2.171844244003D-06 8.917368599214D-03 7.245689630508D-06 5.153550462723D+03
    1.800000000000D+05-8.940696716309D-08-2.898662117278D+00-1.192092895508D-07
    9.402604622624D-01 2.301875000000D+02 5.359411121214D-01-8.267130073437D-09
    3.410856361573D-10 1.000000000000D+00 1.553000000000D+03 0.000000000000D+00
    2.000000000000D+00 0.000000000000D+00-6.053596735001D-09 1.190000000000D+02
    1.728180000000D+05 4.000000000000D+00
 2 09 10 13  2  0  0.0 1.804810017347D-04 3.637978807092D-12 0.000000000000D+00
    3.000000000000D+01 3.878125000000D+01 5.398439152374D-09-1.143181694449D-01
    2.073124051094D-06 9.113347507082D-03 6.813555955887D-06 5.153716644287D+03
    1.800000000000D+05 7.450580596924D-08-2.916849158727D+00-5.774199962616D-08
    9.410811285836D-01 2.378125000000D+02 2.903528492325D+00-8.577142986719D-09
    3.475144753728D-10 1.000000000000D+00 1.553000000000D+03 0.000000000000D+00
    2.000000000000D+00 0.000000000000D+00-1.722946763039D-08 3.000000000000D+01
    1.728180000000D+05 4.000000000000D+00
